LEMUR-2-LEIA-PHILIP     
1 63246U 25052AN  26193.39684137  .00000681  00000+0  63513-4 0  9993
2 63246  97.6812  84.9206 0005093 125.6238 234.5459 14.97388803 72449
LEMUR-2-LIA-MARTIN      
1 63248U 25052AQ  26193.52617086  .00002868  00000+0  24768-3 0  9996
2 63248  97.6876  85.5617 0005401  96.3421 263.8416 14.98016816 72479
LEMUR-2-DELOITTE-1      
1 63259U 25052BB  26193.50618163  .00002160  00000+0  18901-3 0  9990
2 63259  97.6884  85.8724 0002451  68.1930 291.9552 14.97769269 72486
LEMUR-2-EMERSONROSE     
1 63261U 25052BD  26193.18936416  .00002923  00000+0  24432-3 0  9994
2 63261  97.6886  86.1670 0002809  65.5633 294.5883 14.99273394 72480
LEMUR-2-MARACHE-FRAN    
1 63262U 25052BE  26193.14743459  .00001818  00000+0  14977-3 0  9999
2 63262  97.6853  86.4899 0004845 266.1769  93.8900 15.00303753 72501
LEMUR-2-THEFALCONER     
1 63264U 25052BG  26192.93489889  .00001533  00000+0  13628-3 0  9997
2 63264  97.6847  84.9044 0000474   3.9992 356.1234 14.97555399 72392
LEMUR-2-UNTITLED-SC     
1 63351U 25061A   26193.40939216  .00002273  00000+0  12971-3 0  9993
2 63351  97.5648 168.5915 0018943 172.4390 187.7130 15.13635502 71405
LEMUR-2-ESPERANZA       
1 63352U 25061B   26193.45102512  .00001604  00000+0  92370-4 0  9999
2 63352  97.5656 168.7323 0018544 171.5151 188.6398 15.13742340 71418
LEMUR-2-KREMPEL-BRO2    
1 63353U 25061C   26193.00817541  .00002405  00000+0  13500-3 0  9993
2 63353  97.5701 168.8574 0019659 165.9100 194.2684 15.14166225 71366
LEMUR-2-THERMORAPTOR    
1 63354U 25061D   26193.38539394  .00001775  00000+0  10034-3 0  9990
2 63354  97.5707 169.3131 0019468 163.5067 196.6802 15.14250775 71421
LEMUR-2-NEUROSPICY      
1 63355U 25061E   26193.35512839  .00002249  00000+0  12585-3 0  9993
2 63355  97.5634 168.8898 0017187 166.3942 193.7757 15.14368466 71428
LEMUR-2-TILLINFINITY    
1 63356U 25061F   26193.38069309  .00001829  00000+0  10135-3 0  9998
2 63356  97.5620 169.2233 0018788 155.1465 205.0676 15.14952784 71458
LEMUR-2-KREMPEL-BRO1    
1 63357U 25061G   26193.42344471  .00002205  00000+0  12204-3 0  9998
2 63357  97.5621 169.1748 0019380 156.3294 203.8833 15.14759905 71453
LEMUR-2-LANGER2SPACE    
1 63358U 25061H   26193.45501120  .00001811  00000+0  10183-3 0  9994
2 63358  97.5625 169.0100 0017134 164.4818 195.6943 15.14454251 71441
LEMUR-2-BALTO           
1 63395U 25052BH  26193.39866421  .00002843  00000+0  23128-3 0  9995
2 63395  97.6934  86.7232 0005248 339.3712  20.7298 15.00348293 72542
LEMUR-2-KRISH           
1 64561U 25135AK  26192.81705671  .00002656  00000+0  23930-3 0  9991
2 64561  97.7770 307.5283 0001627  96.8966 263.2441 14.96434298 57609
